[{"OBJECT_NAME":"STARLINK-33872","OBJECT_ID":"2025-113V","EPOCH":"2026-03-09T10:45:48.912192","MEAN_MOTION":15.30220217,"ECCENTRICITY":0.00014429,"INCLINATION":53.1605,"RA_OF_ASC_NODE":91.8609,"ARG_OF_PERICENTER":59.9173,"MEAN_ANOMALY":300.1971,"EPHEMERIS_TYPE":0,"CLASSIFICATION_TYPE":"U","NORAD_CAT_ID":64189,"ELEMENT_SET_NO":999,"REV_AT_EPOCH":4499,"BSTAR":0.0010544113,"MEAN_MOTION_DOT":0.00031019,"MEAN_MOTION_DDOT":0},{"OBJECT_NAME":"KUIPER-00208","OBJECT_ID":"2026-030M","EPOCH":"2026-03-09T16:08:08.024640","MEAN_MOTION":15.32208734,"ECCENTRICITY":0.00155248,"INCLINATION":51.8846,"RA_OF_ASC_NODE":219.6993,"ARG_OF_PERICENTER":57.3146,"MEAN_ANOMALY":302.9333,"EPHEMERIS_TYPE":0,"CLASSIFICATION_TYPE":"U","NORAD_CAT_ID":67775,"ELEMENT_SET_NO":999,"REV_AT_EPOCH":508,"BSTAR":0.0013882708,"MEAN_MOTION_DOT":0.00043852,"MEAN_MOTION_DDOT":0}]
